1 25477U 98053C   19273.77683447 +.00000075 +00000-0 +78541-4 0  9999
2 25477 045.0115 018.5747 0002525 229.7230 130.3396 14.32735071097918
1 25477U 98053C   19274.47412681  .00000097  00000-0  86515-4 0  9991
2 25477  45.0115  15.2973 0002589 232.5347 127.5264 14.32735464 98328
1 25477U 98053C   19274.75304374 +.00000110 +00000-0 +91079-4 0  9998
2 25477 045.0115 013.9865 0002593 233.4335 126.6273 14.32735644098055
1 25477U 98053C   19275.65952350  .00000127  00000-0  97375-4 0  9994
2 25477  45.0116   9.7260 0002657 236.8136 123.2456 14.32736137 98497
1 25477U 98053C   19276.70546135  .00000122  00000-0  95622-4 0  9999
2 25477  45.0115   4.8101 0002723 240.7176 119.3398 14.32736638 98642
1 25477U 98053C   19277.68166985 +.00000100 +00000-0 +87574-4 0  9991
2 25477 045.0115 000.2219 0002772 244.4089 115.6471 14.32737030098479
1 25477U 98053C   19278.44869060  .00000082  00000-0  80976-4 0  9998
2 25477  45.0115 356.6170 0002812 247.2146 112.8403 14.32737343 98890
1 25477U 98053C   19278.72760724 +.00000073 +00000-0 +77767-4 0  9990
2 25477 045.0115 355.3062 0002828 248.3952 111.6593 14.32737431098626
1 25477U 98053C   19279.70381526  .00000059  00000-0  72609-4 0  9992
2 25477  45.0114 350.7180 0002871 252.1003 107.9530 14.32737814 99077
1 25477U 98053C   19280.61029390 +.00000065 +00000-0 +74711-4 0  9995
2 25477 045.0114 346.4576 0002910 255.5101 104.5423 14.32738217098899
1 25477U 98053C   19281.16812677  .00000069  00000-0  76382-4 0  9994
2 25477  45.0113 343.8357 0002939 257.6312 102.4206 14.32738445 99287
1 25477U 98053C   19281.65623051 +.00000080 +00000-0 +80168-4 0  9994
2 25477 045.0113 341.5417 0002946 259.3826 100.6688 14.32738682099047
1 25477U 98053C   19282.42325050  .00000087  00000-0  82952-4 0  9998
2 25477  45.0112 337.9365 0002972 262.1520  97.8989 14.32738980 99467
1 25477U 98053C   19282.63243778 +.00000091 +00000-0 +84351-4 0  9997
2 25477 045.0111 336.9534 0002977 263.0747 096.9760 14.32739063099188
1 25477U 98053C   19283.60864484  .00000091  00000-0  84273-4 0  9991
2 25477  45.0110 332.3651 0002994 266.6781  93.3723 14.32739397 99633
1 25477U 98053C   19284.58485163 +.00000080 +00000-0 +80163-4 0  9994
2 25477 045.0108 327.7768 0003011 270.2798 089.7703 14.32739708099461
